STARLINK-4764           
1 53827C 22114K   26118.10812500 -.00023554  00000+0 -14781-2 0  1186
2 53827  53.2154  82.3343 0001269  79.9366 184.9708 15.08823452    14
STARLINK-4760           
1 53828C 22114L   26118.12131944 -.00025197  00000+0 -15802-2 0  1185
2 53828  53.2154  82.1192 0001590  74.3521 342.3412 15.08847956    11
STARLINK-4759           
1 53829C 22114M   26118.10604167 -.00023659  00000+0 -14836-2 0  1183
2 53829  53.2155  82.3046 0001426  86.3501 187.2282 15.08849695    15
STARLINK-4761           
1 53830C 22114N   26118.12340278 -.00044575  00000+0 -27952-2 0  1180
2 53830  53.2150  82.0314 0001527  84.7937  23.2715 15.08860298    16
STARLINK-4649           
1 53831C 22114P   26118.05812500 -.00029452  00000+0 -18468-2 0  1184
2 53831  53.2156  82.4802 0001373  75.7406 317.4469 15.08853873    14
STARLINK-4747           
1 53832C 22114Q   26118.11298611 -.00039010  00000+0 -24463-2 0  1186
2 53832  53.2148  81.9997 0001635  80.7092  10.7934 15.08856228    10
STARLINK-4771           
1 53833C 22114R   26118.11298611 -.00040092  00000+0 -25141-2 0  1183
2 53833  53.2153  82.1278 0001470  81.7125 304.5084 15.08857415    16
STARLINK-4737           
1 53834C 22114S   26118.08243056 -.00027326  00000+0 -17134-2 0  1181
2 53834  53.2148  82.0569 0001305  77.0887 248.3960 15.08854049    11
STARLINK-4783           
1 53835C 22114T   26118.06993056 -.00026311  00000+0 -16508-2 0  1189
2 53835  53.2153  82.2338 0001436  77.9140 119.5805 15.08830398    18
STARLINK-4778           
1 53836C 22114U   26118.12965278  .00125360  00000+0  69067-2 0  1182
2 53836  53.2169  72.2817 0001471  77.0507 289.0660 15.13446795    16
STARLINK-4776           
1 53837C 22114V   26118.06645833 -.00026445  00000+0 -16582-2 0  1188
2 53837  53.2148  82.1678 0001786  86.1347 132.5224 15.08852786    14
STARLINK-4773           
1 53838C 22114W   26118.06645833 -.00029135  00000+0 -18272-2 0  1186
2 53838  53.2159  72.6247 0001661  80.7379 272.6222 15.08848666    16
STARLINK-4784           
1 53839C 22114X   26118.05951389 -.00023978  00000+0 -15042-2 0  1183
2 53839  53.2156  72.7373 0001470  83.7276 191.8206 15.08836830    16
STARLINK-4766           
1 53840C 22114Y   26118.09840278 -.00035080  00000+0 -22000-2 0  1182
2 53840  53.2150  72.3748 0001491  88.5099 133.3308 15.08852499    16
STARLINK-4750           
1 53841C 22114Z   26118.08104167 -.00036892  00000+0 -23136-2 0  1185
2 53841  53.2157  72.5192 0001452  86.8341   5.8087 15.08853884    13
STARLINK-4754           
1 53842C 22114AA  26118.09284722 -.00021269  00000+0 -13339-2 0  1189
2 53842  53.2148  72.3111 0001398  90.5986 146.3075 15.08844277    13
STARLINK-4769           
1 53843C 22114AB  26118.12687500 -.00032231  00000+0 -20214-2 0  1186
2 53843  53.2155  72.2748 0001502  75.5528 286.2134 15.08849137    19
STARLINK-4745           
1 53844C 22114AC  26118.07201389 -.00025974  00000+0 -16291-2 0  1184
2 53844  53.2154  72.3268 0001371  91.5436  72.1945 15.08844277    19
STARLINK-4753           
1 53845C 22114AD  26118.08451389 -.00105110  00000+0 -65898-2 0  1181
2 53845  53.2153  72.4056 0001510  82.8264  88.7943 15.08900046    10
STARLINK-4746           
1 53846C 22114AE  26118.09423611 -.00034820  00000+0 -21838-2 0  1185
2 53846  53.2156  72.1481 0001515  87.5422 237.0240 15.08850825    14
STARLINK-4777           
1 53847C 22114AF  26118.11993056 -.00023847  00000+0 -14956-2 0  1184
2 53847  53.2149  72.1498 0001621  72.0163 332.1100 15.08844230    19
STARLINK-4780           
1 53848C 22114AG  26118.09631944 -.00024362  00000+0 -15279-2 0  1189
2 53848  53.2159  72.0603 0001453  87.9713 287.9684 15.08845179    14
STARLINK-4770           
1 53849C 22114AH  26118.11437500 -.00024384  00000+0 -15292-2 0  1184
2 53849  53.2156  72.0964 0001505  89.9138 324.0685 15.08848537    18
STARLINK-4767           
1 53850C 22114AJ  26118.08034722 -.00023846  00000+0 -14959-2 0  1182
2 53850  53.2160  72.0143 0001563  91.9484 257.2343 15.08836698    18
STARLINK-4755           
1 53851C 22114AK  26118.09909722 -.00024470  00000+0 -15345-2 0  1189
2 53851  53.2159  72.0867 0001292  88.7819 282.2169 15.08850827    19
STARLINK-4797           
1 53852C 22114AL  26118.06506944 -.00040784  00000+0 -25576-2 0  1189
2 53852  53.2150  67.3959 0001472  87.6718  25.7953 15.08855881    12
STARLINK-4794           
1 53853C 22114AM  26118.12340278 -.00016897  00000+0 -10597-2 0  1188
2 53853  53.2160  71.8989 0001503  83.7891  99.3673 15.08842413    14
STARLINK-4800           
1 53854C 22114AN  26118.09770833 -.00051996  00000+0 -32609-2 0  1186
2 53854  53.2165  62.5525 0001507  91.0401  47.1124 15.08860643    13
STARLINK-4703           
1 53855C 22114AP  26118.06784722 -.00023469  00000+0 -14718-2 0  1181
2 53855  53.2160  72.1968 0001545  86.9133 129.0780 15.08845559    11
STARLINK-4795           
1 53856C 22114AQ  26118.11159722  .00445690  00000+0  15858-1 0  1181
2 53856  53.2183  60.7857 0001508  79.0265 299.6076 15.28210079    12
STARLINK-4809           
1 53857C 22114AR  26118.11298611 -.00018296  00000+0 -11473-2 0  1183
2 53857  53.2159  71.8277 0001654  83.9990 102.6174 15.08847168    11
STARLINK-4798           
1 53858C 22114AS  26118.11993056  .00425220  00000+0  84900-2 0  1181
2 53858  53.2179  56.5112 0001369  83.8622 352.1685 15.46030085    19
STARLINK-4790           
1 53859C 22114AT  26118.11159722 -.00016945  00000+0 -10630-2 0  1187
2 53859  53.2161  66.9119 0001570  85.0487  61.3617 15.08830899    13
STARLINK-4799           
1 53860C 22114AU  26118.12548611 -.00062292  00000+0 -39110-2 0  1189
2 53860  53.2169  62.3082 0001609  86.0724 263.1838 15.08824140    19
STARLINK-4781           
1 53861C 22114AV  26118.09284722 -.00021753  00000+0 -13642-2 0  1185
2 53861  53.2165  62.5005 0001805  87.5954  64.1885 15.08845792    19
STARLINK-4788           
1 53863C 22114AX  26118.11715278 -.00183490  00000+0 -11506-1 0  1188
2 53863  53.2164  62.2694 0001533  79.2875 264.7461 15.08931166    18
STARLINK-4779           
1 53864C 22114AY  26118.10326389 -.00047165  00000+0 -29579-2 0  1187
2 53864  53.2165  61.8587 0001458  89.7347  59.0532 15.08857362    11
STARLINK-4762           
1 53866C 22114BA  26118.13173611 -.00021830  00000+0 -13682-2 0  1189
2 53866  53.2175  42.3730 0001821  83.2652 269.7755 15.08867592    13
STARLINK-4793           
1 53867C 22114BB  26118.12131944  .00158420  00000+0  67474-2 0  1184
2 53867  53.2184  51.1844 0001751  86.2378 122.4400 15.22369510    13
STARLINK-4789           
1 53868C 22114BC  26118.07826389 -.00007092  00000+0 -44481-3 0  1187
2 53868  53.2161  42.3148 0001632  90.9029 131.7935 15.08834450    11
STARLINK-4810           
1 53869C 22114BD  26118.09562500 -.00011096  00000+0 -69627-3 0  1180
2 53869  53.2164  51.9959 0001435  73.8180 348.4582 15.08817847    16
STARLINK-4732           
1 53870C 22114BE  26118.06368056 -.00046915  00000+0 -29422-2 0  1185
2 53870  53.2158  42.4046 0001401  84.4931  38.9229 15.08857940    15
STARLINK-4740           
1 53871C 22114BF  26118.06229167 -.00047717  00000+0 -29927-2 0  1186
2 53871  53.2177  42.0993 0001397  89.8764 186.1975 15.08855955    19
STARLINK-5028           
1 53886C 22119A   26118.06854167 -.00027779  00000+0 -17419-2 0  1180
2 53886  53.2151 102.6781 0001308  85.3370 354.3119 15.08852642    10
STARLINK-5029           
1 53887C 22119B   26118.11854167 -.00043584  00000+0 -27328-2 0  1189
2 53887  53.2150 102.3363 0001428  70.4843 340.9760 15.08863511    16
STARLINK-5034           
1 53888C 22119C   26118.11368056  .00362130  00000+0  40149-2 0  1182
2 53888  53.2163  92.3172 0001300  81.9428  34.5254 15.62138787    16
STARLINK-5031           
1 53889C 22119D   26118.06993056 -.00026435  00000+0 -16578-2 0  1187
2 53889  53.2151 102.5925 0001619  71.1544  56.0908 15.08849536    13
STARLINK-5050           
1 53890C 22119E   26118.06645833 -.00022267  00000+0 -13964-2 0  1181
2 53890  53.2164  67.2422 0001660  83.4942 237.6191 15.08847436    10
STARLINK-5041           
1 53891C 22119F   26118.07340278  .00272020  00000+0  11847-1 0  1187
2 53891  53.2184 101.0027 0001580  80.7912 164.8920 15.21556081    18
STARLINK-5046           
1 53892C 22119G   26118.12756944 -.00033778  00000+0 -21182-2 0  1186
2 53892  53.2143 102.0624 0001374  80.9876 139.6941 15.08854511    17
STARLINK-5052           
1 53893C 22119H   26118.11715278 -.00059285  00000+0 -37153-2 0  1187
2 53893  53.2148 102.2356 0001775  60.1160  38.6795 15.08890887    19
STARLINK-5043           
1 53894C 22119J   26118.07062500  .00123210  00000+0  73234-2 0  1184
2 53894  53.2174 102.4521 0001298  77.2857 126.3116 15.10723766    13
STARLINK-5032           
1 53895C 22119K   26118.11923611  .00220140  00000+0  45386-2 0  1186
2 53895  53.2175  96.3109 0001181  77.5447 196.2367 15.45198274    19
STARLINK-5037           
1 53896C 22119L   26118.10673611 -.00031077  00000+0 -19483-2 0  1188
2 53896  53.2141 102.1172 0001336  98.8903  28.4799 15.08861917    19
STARLINK-5035           
1 53897C 22119M   26118.07965278  .00416330  00000+0  15608-1 0  1189
2 53897  53.2168 100.4866 0001342  78.6002  90.6015 15.26509140    12
STARLINK-5044           
1 53898C 22119N   26118.10604167 -.00029998  00000+0 -18811-2 0  1183
2 53898  53.2142 102.0014 0001260  79.8615 103.9134 15.08854807    13
STARLINK-5042           
1 53899C 22119P   26118.13312500  .00484730  00000+0  98818-2 0  1186
2 53899  53.2173  97.0655 0001064  83.6192 205.0460 15.45394973    17
STARLINK-5045           
1 53900C 22119Q   26118.12826389 -.00031171  00000+0 -19550-2 0  1188
2 53900  53.2147 101.8210 0001305  76.3396 268.2712 15.08848419    14
STARLINK-5021           
1 53902C 22119S   26118.05951389 -.00021728  00000+0 -13627-2 0  1187
2 53902  53.2156  52.2435 0001518  85.8599 240.0316 15.08844540    19
